*******************************************************************************
JPL/HORIZONS                 103 Hera (A868 RA)            2023-Sep-04 11:04:24
Rec #:     103 (+COV) Soln.date: 2023-Aug-21_11:24:07   # obs: 7897 (1871-2023)
 
IAU76/J2000 helio. ecliptic osc. elements (au, days, deg., period=Julian yrs):
 
  EPOCH=  2457500.5 ! 2016-Apr-22.00 (TDB)         Residual RMS= .32937
   EC= .08121947284061516  QR= 2.481785923501751   TP= 2457000.0808498813
   OM= 136.1864338423602   W=  188.3964810841246   IN= 5.419549441824544
   A= 2.701173838734639    MA= 111.0987551112885   ADIST= 2.920561753967528
   PER= 4.43953            N= .222011398           ANGMOM= .028178672
   DAN= 2.9178             DDN= 2.48379            L= 324.5459125
   B= -.7902204            MOID= 1.47026002        TP= 2014-Dec-08.5808498813
 
Asteroid physical parameters (km, seconds, rotational period in hours):
   GM= n.a.                RAD= 41.954             ROTPER= 23.74
   H= 7.81                 G= .150                 B-V= .853
                           ALBEDO= .217            STYP= S

ASTEROID comments: 
1: soln ref.= JPL#133, OCC=0
2: source=ORB
*******************************************************************************


*******************************************************************************
Ephemeris / API_USER Mon Sep  4 11:04:24 2023 Pasadena, USA      / Horizons
*******************************************************************************
Target body name: 103 Hera (A868 RA)              {source: JPL#133}
Center body name: Solar System Barycenter (0)     {source: DE441}
Center-site name: BODY CENTER
*******************************************************************************
Start time      : A.D. 2023-Aug-12 00:00:00.0000 TDB
Stop  time      : A.D. 2023-Aug-13 00:00:00.0000 TDB
Step-size       : 2880 minutes
*******************************************************************************
Center geodetic : 0.0, 0.0, 0.0                   {E-lon(deg),Lat(deg),Alt(km)}
Center cylindric: 0.0, 0.0, 0.0                   {E-lon(deg),Dxy(km),Dz(km)}
Center radii    : (undefined)
Small perturbers: Yes                             {source: SB441-N16}
Output units    : KM-S
Calendar mode   : Mixed Julian/Gregorian
Output type     : GEOMETRIC cartesian states
Output format   : 2 (position and velocity)
Reference frame : Ecliptic of J2000.0
*******************************************************************************
Initial IAU76/J2000 heliocentric ecliptic osculating elements (au, days, deg.):
  EPOCH=  2457500.5 ! 2016-Apr-22.00 (TDB)         Residual RMS= .32937        
   EC= .08121947284061516  QR= 2.481785923501751   TP= 2457000.0808498813      
   OM= 136.1864338423602   W=  188.3964810841246   IN= 5.419549441824544       
  Equivalent ICRF heliocentric cartesian coordinates (au, au/d):
   X= 2.839254102987869E-01  Y= 2.626793810304104E+00  Z= 9.116418329397630E-01
  VX=-9.932697618451065E-03 VY= 1.446249712717046E-03 VZ= 1.203367993573034E-03
Asteroid physical parameters (km, seconds, rotational period in hours):        
   GM= n.a.                RAD= 41.954             ROTPER= 23.74               
   H= 7.81                 G= .150                 B-V= .853                   
                           ALBEDO= .217            STYP= S                     
*******************************************************************************
JDTDB
   X     Y     Z
   VX    VY    VZ
*******************************************************************************
$$SOE
2460168.500000000 = A.D. 2023-Aug-12 00:00:00.0000 TDB 
 X = 2.105659775399064E+08 Y =-3.083884312080122E+08 Z = 7.137986777851894E+06
 VX= 1.574953642809538E+01 VY= 1.139517298017406E+01 VZ=-1.815563906376734E+00
$$EOE
*******************************************************************************
 
TIME

  Barycentric Dynamical Time ("TDB" or T_eph) output was requested. This
continuous coordinate time is equivalent to the relativistic proper time
of a clock at rest in a reference frame co-moving with the solar system
barycenter but outside the system's gravity well. It is the independent
variable in the solar system relativistic equations of motion.

  TDB runs at a uniform rate of one SI second per second and is independent
of irregularities in Earth's rotation.
 
CALENDAR SYSTEM

  Mixed calendar mode was active such that calendar dates after AD 1582-Oct-15
(if any) are in the modern Gregorian system. Dates prior to 1582-Oct-5 (if any)
are in the Julian calendar system, which is automatically extended for dates
prior to its adoption on 45-Jan-1 BC.  The Julian calendar is useful for
matching historical dates. The Gregorian calendar more accurately corresponds
to the Earth's orbital motion and seasons. A "Gregorian-only" calendar mode is
available if such physical events are the primary interest.

REFERENCE FRAME AND COORDINATES

  Ecliptic at the standard reference epoch

    Reference epoch: J2000.0
    X-Y plane: adopted Earth orbital plane at the reference epoch
               Note: IAU76 obliquity of 84381.448 arcseconds wrt ICRF X-Y plane
    X-axis   : ICRF
    Z-axis   : perpendicular to the X-Y plane in the directional (+ or -) sense
               of Earth's north pole at the reference epoch.

  Symbol meaning:

    JDTDB    Julian Day Number, Barycentric Dynamical Time
      X      X-component of position vector (km)
      Y      Y-component of position vector (km)
      Z      Z-component of position vector (km)
      VX     X-component of velocity vector (km/sec)                           
      VY     Y-component of velocity vector (km/sec)                           
      VZ     Z-component of velocity vector (km/sec)                           

ABERRATIONS AND CORRECTIONS

 Geometric state vectors have NO corrections or aberrations applied.

Computations by ...

    Solar System Dynamics Group, Horizons On-Line Ephemeris System
    4800 Oak Grove Drive, Jet Propulsion Laboratory
    Pasadena, CA  91109   USA

    General site: https://ssd.jpl.nasa.gov/
    Mailing list: https://ssd.jpl.nasa.gov/email_list.html
    System news : https://ssd.jpl.nasa.gov/horizons/news.html
    User Guide  : https://ssd.jpl.nasa.gov/horizons/manual.html
    Connect     : browser        https://ssd.jpl.nasa.gov/horizons/app.html#/x
                  API            https://ssd-api.jpl.nasa.gov/doc/horizons.html
                  command-line   telnet ssd.jpl.nasa.gov 6775
                  e-mail/batch   https://ssd.jpl.nasa.gov/ftp/ssd/hrzn_batch.txt
                  scripts        https://ssd.jpl.nasa.gov/ftp/ssd/SCRIPTS
    Author      : Jon.D.Giorgini@jpl.nasa.gov
*******************************************************************************
